NORAD_CAT_ID,OBJECT_NAME,OBJECT_TYPE,EPOCH,MEAN_MOTION,ECCENTRICITY,INCLINATION,RA_OF_ASC_NODE,ARG_OF_PERICENTER,MEAN_ANOMALY,BSTAR,MEAN_MOTION_DOT,MEAN_MOTION_DDOT,TLE_LINE0,TLE_LINE1,TLE_LINE2,SEMIMAJOR_AXIS,PERIOD,APOGEE,PERIGEE,DECAYED
49458.0,STARLINK-3156,PAYLOAD,2023-06-09 19:07:17,15.08828656,0.0001044,53.2178,45.7742,92.0302,268.081,6.7445e-05,7.85e-06,0.0,0 STARLINK-3156,1 49458U 21104BC  23160.79673054  .00000785  00000-0  67445-4 0  9991,2 49458  53.2178  45.7742 0001044  92.0302 268.0810 15.08828656 87225,6917.915,95.438,540.502,539.058,0.0
49458.0,STARLINK-3156,PAYLOAD,2023-06-10 01:28:49,15.08841407,0.0001166,53.2175,44.5839,95.5143,264.5982,5.4202e-05,5.75e-06,0.0,0 STARLINK-3156,1 49458U 21104BC  23161.06168368  .00000575  00000-0  54202-4 0  9993,2 49458  53.2175  44.5839 0001166  95.5143 264.5982 15.08841407 88346,6917.876,95.437,540.548,538.934,0.0
49458.0,STARLINK-3156,PAYLOAD,2023-06-10 09:25:45,15.08839858,0.0001209,53.2175,43.0971,85.4217,274.6913,8.541e-06,-1.52e-06,0.0,0 STARLINK-3156,1 49458U 21104BC  23161.39288642 -.00000152  00000-0  85410-5 0  9995,2 49458  53.2175  43.0971 0001209  85.4217 274.6913 15.08839858 87314,6917.881,95.438,540.582,538.909,0.0
49458.0,STARLINK-3156,PAYLOAD,2023-06-10 22:08:50,15.08844366,0.0001175,53.2174,40.7186,87.4398,272.6728,5.9421e-05,6.58e-06,0.0,0 STARLINK-3156,1 49458U 21104BC  23161.92280311  .00000658  00000-0  59421-4 0  9991,2 49458  53.2174  40.7186 0001175  87.4398 272.6728 15.08844366 87399,6917.867,95.437,540.545,538.919,0.0
49458.0,STARLINK-3156,PAYLOAD,2023-06-11 01:19:36,15.08844776,0.0001185,53.2173,40.1239,87.4195,272.6932,6.2787e-05,7.12e-06,0.0,0 STARLINK-3156,1 49458U 21104BC  23162.05528260  .00000712  00000-0  62787-4 0  9994,2 49458  53.2173  40.1239 0001185  87.4195 272.6932 15.08844776 87412,6917.866,95.437,540.551,538.911,0.0
49458.0,STARLINK-3156,PAYLOAD,2023-06-11 15:38:04,15.08839059,0.0001222,53.2177,37.4473,83.7482,276.3649,0.00010618,1.402e-05,0.0,0 STARLINK-3156,1 49458U 21104BC  23162.65144502  .00001402  00000-0  10618-3 0  9995,2 49458  53.2177  37.4473 0001222  83.7482 276.3649 15.08839059 88588,6917.883,95.438,540.594,538.903,0.0
49458.0,STARLINK-3156,PAYLOAD,2023-06-11 21:59:36,15.08845155,0.0001133,53.2177,36.2593,81.8624,278.2497,0.00014643,2.044e-05,0.0,0 STARLINK-3156,1 49458U 21104BC  23162.91639940  .00002044  00000-0  14643-3 0  9994,2 49458  53.2177  36.2593 0001133  81.8624 278.2497 15.08845155 87547,6917.865,95.437,540.513,538.946,0.0
49458.0,STARLINK-3156,PAYLOAD,2023-06-12 09:07:19,15.08841375,0.0001131,53.2169,34.177,85.9077,274.2044,5.1077e-05,5.25e-06,0.0,0 STARLINK-3156,1 49458U 21104BC  23163.38008359  .00000525  00000-0  51077-4 0  9995,2 49458  53.2169  34.1770 0001131  85.9077 274.2044 15.08841375 87619,6917.876,95.437,540.524,538.959,0.0
49458.0,STARLINK-3156,PAYLOAD,2023-06-12 18:39:38,15.0883941,0.0001129,53.2169,32.3928,87.105,273.0071,2.9803e-05,1.87e-06,0.0,0 STARLINK-3156,1 49458U 21104BC  23163.77752529  .00000187  00000-0  29803-4 0  9999,2 49458  53.2169  32.3928 0001129  87.1050 273.0071 15.08839410 88756,6917.882,95.438,540.528,538.966,0.0
49458.0,STARLINK-3156,PAYLOAD,2023-06-12 21:50:24,15.08842756,0.0001194,53.2167,31.797,90.5243,269.5886,4.9168e-05,4.95e-06,0.0,0 STARLINK-3156,1 49458U 21104BC  23163.91000226  .00000495  00000-0  49168-4 0  9993,2 49458  53.2167  31.7970 0001194  90.5243 269.5886 15.08842756 87691,6917.872,95.437,540.563,538.911,0.0
49458.0,STARLINK-3156,PAYLOAD,2023-06-13 21:41:11,15.08842357,9.65e-05,53.2166,27.3398,69.7715,290.3381,-6.9929e-05,-1.401e-05,0.0,0 STARLINK-3156,1 49458U 21104BC  23164.90360559 -.00001401  00000-0 -69929-4 0  9998,2 49458  53.2166  27.3398 0000965  69.7715 290.3381 15.08842357 87848,6917.873,95.437,540.406,539.071,0.0
49458.0,STARLINK-3156,PAYLOAD,2023-06-14 00:51:57,15.08842509,9.41e-05,53.2167,26.7433,84.8234,275.2865,2.5104e-05,1.12e-06,0.0,0 STARLINK-3156,1 49458U 21104BC  23165.03608250  .00000112  00000-0  25104-4 0  9999,2 49458  53.2167  26.7433 0000941  84.8234 275.2865 15.08842509 88940,6917.873,95.437,540.389,539.087,0.0
49458.0,STARLINK-3156,PAYLOAD,2023-06-14 18:21:12,15.08837737,9.53e-05,53.2178,23.4689,113.3971,246.7121,3.2439e-05,2.29e-06,0.0,0 STARLINK-3156,1 49458U 21104BC  23165.76472548  .00000229  00000-0  32439-4 0  9996,2 49458  53.2178  23.4689 0000953 113.3971 246.7121 15.08837737 89056,6917.887,95.438,540.412,539.093,0.0
49458.0,STARLINK-3156,PAYLOAD,2023-06-14 21:31:58,15.08839312,8.38e-05,53.2172,22.8772,90.9539,269.1549,6.8572e-05,8.04e-06,0.0,0 STARLINK-3156,1 49458U 21104BC  23165.89720482  .00000804  00000-0  68572-4 0  9999,2 49458  53.2172  22.8772 0000838  90.9539 269.1549 15.08839312 87993,6917.882,95.438,540.327,539.168,0.0
49458.0,STARLINK-3156,PAYLOAD,2023-06-15 13:25:50,15.08789745,0.0001123,53.2164,19.9036,103.5414,256.5703,0.00061309,9.47e-05,0.0,0 STARLINK-3156,1 49458U 21104BC  23166.55961045  .00009470  00000-0  61309-3 0  9993,2 49458  53.2164  19.9036 0001123 103.5414 256.5703 15.08789745 88093,6918.034,95.441,540.676,539.122,0.0
49458.0,STARLINK-3156,PAYLOAD,2023-06-15 15:01:13,15.08834362,8.65e-05,53.2174,19.6059,83.6656,276.4434,6.9755e-06,-1.77e-06,0.0,0 STARLINK-3156,1 49458U 21104BC  23166.62585236 -.00000177  00000-0  69755-5 0  9996,2 49458  53.2174  19.6059 0000865  83.6656 276.4434 15.08834362 89183,6917.898,95.438,540.361,539.164,0.0
49458.0,STARLINK-3156,PAYLOAD,2023-06-15 22:58:08,15.08840361,8.64e-05,53.2174,18.1192,82.2347,277.8743,5.2166e-05,5.43e-06,0.0,0 STARLINK-3156,1 49458U 21104BC  23166.95704787  .00000543  00000-0  52166-4 0  9999,2 49458  53.2174  18.1192 0000864  82.2347 277.8743 15.08840361 89236,6917.879,95.438,540.342,539.147,0.0
49458.0,STARLINK-3156,PAYLOAD,2023-06-16 06:55:04,15.08841919,8.6e-05,53.2173,16.6323,82.2218,277.8872,6.3759e-05,7.27e-06,0.0,0 STARLINK-3156,1 49458U 21104BC  23167.28824673  .00000727  00000-0  63759-4 0  9997,2 49458  53.2173  16.6323 0000860  82.2218 277.8872 15.08841919 88206,6917.875,95.437,540.334,539.145,0.0
49458.0,STARLINK-3156,PAYLOAD,2023-06-16 18:02:45,15.08850609,8.89e-05,53.2175,14.5508,86.9005,273.2089,0.00012565,1.713e-05,0.0,0 STARLINK-3156,1 49458U 21104BC  23167.75191917  .00001713  00000-0  12565-3 0  9991,2 49458  53.2175  14.5508 0000889  86.9005 273.2089 15.08850609 88279,6917.848,95.437,540.328,539.098,0.0
49458.0,STARLINK-3156,PAYLOAD,2023-06-16 21:13:31,15.08854524,0.0001046,53.2175,13.9557,97.6598,262.4512,0.00017038,2.426e-05,0.0,0 STARLINK-3156,1 49458U 21104BC  23167.88439524  .00002426  00000-0  17038-3 0  9996,2 49458  53.2175  13.9557 0001046  97.6598 262.4512 15.08854524 89371,6917.836,95.437,540.425,538.977,0.0
49458.0,STARLINK-3156,PAYLOAD,2023-06-17 13:07:24,15.08833172,0.0001061,53.2176,10.9823,81.8181,278.2932,4.5485e-05,4.36e-06,0.0,0 STARLINK-3156,1 49458U 21104BC  23168.54681423  .00000436  00000-0  45485-4 0  9994,2 49458  53.2176  10.9823 0001061  81.8181 278.2932 15.08833172 88393,6917.901,95.438,540.5,539.032,0.0
49458.0,STARLINK-3156,PAYLOAD,2023-06-17 22:39:44,15.08825933,9.9e-05,53.217,9.1973,82.4774,277.6331,-3.9905e-05,-9.22e-06,0.0,0 STARLINK-3156,1 49458U 21104BC  23168.94426446 -.00000922  00000-0 -39905-4 0  9992,2 49458  53.2170   9.1973 0000990  82.4774 277.6331 15.08825933 89537,6917.923,95.438,540.473,539.104,0.0
49458.0,STARLINK-3156,PAYLOAD,2023-06-18 19:19:44,15.08841402,8.46e-05,53.2179,5.3321,77.8962,282.2125,2.1518e-05,5.5e-07,0.0,0 STARLINK-3156,1 49458U 21104BC  23169.80537555  .00000055  00000-0  21518-4 0  9998,2 49458  53.2179   5.3321 0000846  77.8962 282.2125 15.08841402 89664,6917.876,95.437,540.326,539.156,0.0
49458.0,STARLINK-3156,PAYLOAD,2023-06-19 06:27:25,15.08854956,6.73e-05,53.2179,3.2504,95.6859,264.421,2.7662e-05,1.53e-06,0.0,0 STARLINK-3156,1 49458U 21104BC  23170.26904466  .00000153  00000-0  27662-4 0  9994,2 49458  53.2179   3.2504 0000673  95.6859 264.4210 15.08854956 89738,6917.835,95.437,540.165,539.234,0.0
49458.0,STARLINK-3156,PAYLOAD,2023-06-19 19:10:31,15.08849439,8.6e-05,53.217,0.8715,62.7683,297.3397,0.00044597,6.819e-05,0.0,0 STARLINK-3156,1 49458U 21104BC  23170.79897283  .00006819  00000-0  44597-3 0  9990,2 49458  53.2170   0.8715 0000860  62.7683 297.3397 15.08849439 88734,6917.852,95.437,540.311,539.122,0.0
49458.0,STARLINK-3156,PAYLOAD,2023-06-19 20:45:54,15.08853116,8.95e-05,53.2169,0.5742,62.3256,297.7827,0.00050311,7.731e-05,0.0,0 STARLINK-3156,1 49458U 21104BC  23170.86521162  .00007731  00000-0  50311-3 0  9993,2 49458  53.2169   0.5742 0000895  62.3256 297.7827 15.08853116 89829,6917.84,95.437,540.324,539.086,0.0
49458.0,STARLINK-3156,PAYLOAD,2023-06-20 06:18:13,15.08852843,9.99e-05,53.2159,358.7915,51.9859,308.1223,0.00030648,4.595e-05,0.0,0 STARLINK-3156,1 49458U 21104BC  23171.26265076  .00004595  00000-0  30648-3 0  9993,2 49458  53.2159 358.7915 0000999  51.9859 308.1223 15.08852843 88806,6917.841,95.437,540.397,539.015,0.0
49458.0,STARLINK-3156,PAYLOAD,2023-06-20 17:25:54,15.08850891,9.57e-05,53.2174,356.706,107.9365,252.1732,0.00011953,1.616e-05,0.0,0 STARLINK-3156,1 49458U 21104BC  23171.72632863  .00001616  00000-0  11953-3 0  9995,2 49458  53.2174 356.7060 0000957 107.9365 252.1732 15.08850891 89951,6917.847,95.437,540.374,539.05,0.0
49458.0,STARLINK-3156,PAYLOAD,2023-06-20 19:01:17,15.08850066,8.91e-05,53.2172,356.4093,103.6328,256.4763,0.00010548,1.392e-05,0.0,0 STARLINK-3156,1 49458U 21104BC  23171.79256879  .00001392  00000-0  10548-3 0  9991,2 49458  53.2172 356.4093 0000891 103.6328 256.4763 15.08850066 88887,6917.85,95.437,540.331,539.098,0.0
49458.0,STARLINK-3156,PAYLOAD,2023-06-20 22:12:04,15.08852664,8.09e-05,53.2172,355.8168,86.6862,273.4223,0.00014717,2.056e-05,0.0,0 STARLINK-3156,1 49458U 21104BC  23171.92504738  .00002056  00000-0  14717-3 0  9996,2 49458  53.2172 355.8168 0000809  86.6862 273.4223 15.08852664 88904,6917.842,95.437,540.266,539.147,0.0
